*******************************************************************************
Ephemeris / WWW_USER Tue Sep 23 09:55:16 2014 Pasadena, USA      / Horizons    
*******************************************************************************
Target body name: Voyager I Spacecraft (-31)      {source: pfile_a54418u.nio}
Center body name: Earth (399)                     {source: pfile_a54418u.nio}
Center-site name: (user defined site below)
*******************************************************************************
Start time      : A.D. 2014-Sep-23 00:00:00.0000 UT      
Stop  time      : A.D. 2014-Oct-23 00:00:00.0000 UT      
Step-size       : 1 minutes
*******************************************************************************
Target pole/equ : No model available
Target radii    : (unavailable)                                                
Center geodetic : 359.883300,51.5000000,-1.58E-12 {E-lon(deg),Lat(deg),Alt(km)}
Center cylindric: 359.883300,3978.64853,4968.3625 {E-lon(deg),Dxy(km),Dz(km)}
Center pole/equ : High-precision EOP model        {East-longitude +}
Center radii    : 6378.1 x 6378.1 x 6356.8 km     {Equator, meridian, pole}    
Target primary  : Earth
Vis. interferer : MOON (R_eq= 1737.400) km        {source: pfile_a54418u.nio}
Rel. light bend : Sun, EARTH                      {source: pfile_a54418u.nio}
Rel. lght bnd GM: 1.3271E+11, 3.9860E+05 km^3/s^2                              
Atmos refraction: YES (Earth refraction model)
RA format       : DEG
Time format     : CAL 
RTS-only print  : NO       
EOP file        : eop.140922.p141214                                           
EOP coverage    : DATA-BASED 1962-JAN-20 TO 2014-SEP-22. PREDICTS-> 2014-DEC-13
Units conversion: 1 au= 149597870.700 km, c= 299792.458 km/s, 1 day= 86400.0 s 
Table cut-offs 1: Elevation (-90.0deg=NO ),Airmass (>38.000=NO), Daylight (NO )
Table cut-offs 2: Solar Elongation (  0.0,180.0=NO ),Local Hour Angle( 0.0=NO )
Table format    : Comma Separated Values (spreadsheet)
*********************************************************************************************
 Date__(UT)__HR:MN, , ,Azi_(r-appr), Elev_(r-appr),            delta,     deldot,   1-way_LT,
*********************************************************************************************
$$SOE
 2014-Sep-23 00:00, , ,288.6213,  1.2329, 1.9333932015E+10, 40.6320643, 1074.85092,
 2014-Sep-23 00:01, , ,288.8168,  1.1009, 1.9333934453E+10, 40.6316826, 1074.85106,
 2014-Sep-23 00:02, , ,289.0125,  0.9701, 1.9333936890E+10, 40.6312956, 1074.85119,
 2014-Sep-23 00:03, , ,289.2082,  0.8405, 1.9333939328E+10, 40.6309034, 1074.85133,
 2014-Sep-23 00:04, , ,289.4041,  0.7120, 1.9333941766E+10, 40.6305059, 1074.85147,
 2014-Sep-23 00:05, , ,289.6001,  0.5849, 1.9333944203E+10, 40.6301032, 1074.85160,
 2014-Sep-23 00:06, , ,289.7962,  0.4590, 1.9333946641E+10, 40.6296953, 1074.85174,
 2014-Sep-23 00:07, , ,289.9925,  0.3343, 1.9333949079E+10, 40.6292821, 1074.85187,
 2014-Sep-23 00:08, , ,290.1889,  0.2107, 1.9333951516E+10, 40.6288637, 1074.85201,
 2014-Sep-23 00:09, , ,290.3855,  0.0882, 1.9333953954E+10, 40.6284401, 1074.85214,
 2014-Sep-23 00:10, ,s,290.5822, -0.0334, 1.9333956392E+10, 40.6280113, 1074.85228,
 2014-Sep-23 00:11, , ,290.7790, -0.1544, 1.9333958829E+10, 40.6275772, 1074.85241,
 2014-Sep-23 00:12, , ,290.9760, -0.2752, 1.9333961267E+10, 40.6271380, 1074.85255,
 2014-Sep-23 00:13, , ,291.1732, -0.4049, 1.9333963704E+10, 40.6266936, 1074.85268,
 2014-Sep-23 00:14, , ,291.3705, -0.5503, 1.9333966141E+10, 40.6262440, 1074.85282,
 2014-Sep-23 00:15, , ,291.5679, -0.6956, 1.9333968579E+10, 40.6257892, 1074.85296,
 2014-Sep-23 00:16, , ,291.7655, -0.8406, 1.9333971016E+10, 40.6253293, 1074.85309,
 2014-Sep-23 00:17, , ,291.9633, -0.9854, 1.9333973454E+10, 40.6248642, 1074.85323,
 2014-Sep-23 00:18, , ,292.1612, -1.1301, 1.9333975891E+10, 40.6243939, 1074.85336,
 2014-Sep-23 00:19, , ,292.3593, -1.2745, 1.9333978328E+10, 40.6239185, 1074.85350,
 2014-Sep-23 00:20, , ,292.5576, -1.4187, 1.9333980766E+10, 40.6234380, 1074.85363,
 2014-Sep-23 00:21, , ,292.7560, -1.5627, 1.9333983203E+10, 40.6229524, 1074.85377,
 2014-Sep-23 00:22, , ,292.9546, -1.7065, 1.9333985640E+10, 40.6224616, 1074.85390,
 2014-Sep-23 00:23, , ,293.1534, -1.8501, 1.9333988077E+10, 40.6219657, 1074.85404,
 2014-Sep-23 00:24, , ,293.3523, -1.9935, 1.9333990514E+10, 40.6214647, 1074.85418,
 2014-Sep-23 00:25, , ,293.5515, -2.1367, 1.9333992952E+10, 40.6209586, 1074.85431,
 2014-Sep-23 00:26, , ,293.7508, -2.2796, 1.9333995389E+10, 40.6204474, 1074.85445,
 2014-Sep-23 00:27, , ,293.9503, -2.4223, 1.9333997826E+10, 40.6199311, 1074.85458,
 2014-Sep-23 00:28, , ,294.1499, -2.5649, 1.9334000263E+10, 40.6194098, 1074.85472,
 2014-Sep-23 00:29, , ,294.3498, -2.7071, 1.9334002700E+10, 40.6188834, 1074.85485,
 2014-Sep-23 00:30, , ,294.5498, -2.8492, 1.9334005137E+10, 40.6183519, 1074.85499,
 2014-Sep-23 00:31, , ,294.7501, -2.9910, 1.9334007574E+10, 40.6178154, 1074.85512,
 2014-Sep-23 00:32, , ,294.9505, -3.1326, 1.9334010011E+10, 40.6172739, 1074.85526,
 2014-Sep-23 00:33, , ,295.1511, -3.2740, 1.9334012448E+10, 40.6167273, 1074.85539,
 2014-Sep-23 00:34, , ,295.3520, -3.4152, 1.9334014884E+10, 40.6161757, 1074.85553,
 2014-Sep-23 00:35, , ,295.5530, -3.5561, 1.9334017321E+10, 40.6156191, 1074.85567,
 2014-Sep-23 00:36, , ,295.7542, -3.6968, 1.9334019758E+10, 40.6150575, 1074.85580,
 2014-Sep-23 00:37, , ,295.9557, -3.8372, 1.9334022195E+10, 40.6144909, 1074.85594,
 2014-Sep-23 00:38, , ,296.1573, -3.9774, 1.9334024631E+10, 40.6139194, 1074.85607,
 2014-Sep-23 00:39, , ,296.3592, -4.1173, 1.9334027068E+10, 40.6133428, 1074.85621,
 2014-Sep-23 00:40, , ,296.5612, -4.2570, 1.9334029505E+10, 40.6127613, 1074.85634,
 2014-Sep-23 00:41, , ,296.7635, -4.3965, 1.9334031941E+10, 40.6121749, 1074.85648,
 2014-Sep-23 00:42, , ,296.9660, -4.5357, 1.9334034378E+10, 40.6115835, 1074.85661,
 2014-Sep-23 00:43, , ,297.1687, -4.6747, 1.9334036814E+10, 40.6109871, 1074.85675,
 2014-Sep-23 00:44, , ,297.3717, -4.8134, 1.9334039251E+10, 40.6103859, 1074.85688,
 2014-Sep-23 00:45, , ,297.5748, -4.9519, 1.9334041687E+10, 40.6097797, 1074.85702,
 2014-Sep-23 00:46, , ,297.7782, -5.0901, 1.9334044124E+10, 40.6091686, 1074.85716,
 2014-Sep-23 00:47, , ,297.9818, -5.2280, 1.9334046560E+10, 40.6085527, 1074.85729,
 2014-Sep-23 00:48, , ,298.1856, -5.3657, 1.9334048997E+10, 40.6079318, 1074.85743,
 2014-Sep-23 00:49, , ,298.3897, -5.5031, 1.9334051433E+10, 40.6073061, 1074.85756,
 2014-Sep-23 00:50, , ,298.5940, -5.6403, 1.9334053869E+10, 40.6066755, 1074.85770,
 2014-Sep-23 00:51, , ,298.7985, -5.7772, 1.9334056305E+10, 40.6060401, 1074.85783,
 2014-Sep-23 00:52, , ,299.0033, -5.9138, 1.9334058742E+10, 40.6053998, 1074.85797,
 2014-Sep-23 00:53, , ,299.2083, -6.0501, 1.9334061178E+10, 40.6047547, 1074.85810,
 2014-Sep-23 00:54, , ,299.4135, -6.1862, 1.9334063614E+10, 40.6041048, 1074.85824,
 2014-Sep-23 00:55, , ,299.6190, -6.3220, 1.9334066050E+10, 40.6034500, 1074.85837,
 2014-Sep-23 00:56, , ,299.8248, -6.4575, 1.9334068486E+10, 40.6027905, 1074.85851,
 2014-Sep-23 00:57, , ,300.0308, -6.5928, 1.9334070922E+10, 40.6021262, 1074.85865,
 2014-Sep-23 00:58, , ,300.2370, -6.7277, 1.9334073358E+10, 40.6014571, 1074.85878,
 2014-Sep-23 00:59, , ,300.4435, -6.8624, 1.9334075794E+10, 40.6007832, 1074.85892,
 2014-Sep-23 01:00, , ,300.6502, -6.9968, 1.9334078230E+10, 40.6001047, 1074.85905,
 2014-Sep-23 01:01, , ,300.8572, -7.1309, 1.9334080666E+10, 40.5994213, 1074.85919,
 2014-Sep-23 01:02, , ,301.0644, -7.2648, 1.9334083102E+10, 40.5987332, 1074.85932,
 2014-Sep-23 01:03, , ,301.2719, -7.3983, 1.9334085537E+10, 40.5980405, 1074.85946,
 2014-Sep-23 01:04, , ,301.4797, -7.5315, 1.9334087973E+10, 40.5973430, 1074.85959,
 2014-Sep-23 01:05, , ,301.6877, -7.6645, 1.9334090409E+10, 40.5966408, 1074.85973,
 2014-Sep-23 01:06, , ,301.8960, -7.7971, 1.9334092844E+10, 40.5959340, 1074.85986,
 2014-Sep-23 01:07, , ,302.1046, -7.9295, 1.9334095280E+10, 40.5952224, 1074.86000,
 2014-Sep-23 01:08, , ,302.3134, -8.0615, 1.9334097716E+10, 40.5945062, 1074.86014,
 2014-Sep-23 01:09, , ,302.5225, -8.1932, 1.9334100151E+10, 40.5937854, 1074.86027,
 2014-Sep-23 01:10, , ,302.7319, -8.3247, 1.9334102587E+10, 40.5930600, 1074.86041,
 2014-Sep-23 01:11, , ,302.9415, -8.4558, 1.9334105022E+10, 40.5923299, 1074.86054,
 2014-Sep-23 01:12, , ,303.1514, -8.5866, 1.9334107457E+10, 40.5915952, 1074.86068,
 2014-Sep-23 01:13, , ,303.3616, -8.7171, 1.9334109893E+10, 40.5908560, 1074.86081,
 2014-Sep-23 01:14, , ,303.5721, -8.8473, 1.9334112328E+10, 40.5901121, 1074.86095,
 2014-Sep-23 01:15, , ,303.7829, -8.9771, 1.9334114763E+10, 40.5893637, 1074.86108,
 2014-Sep-23 01:16, , ,303.9939, -9.1067, 1.9334117198E+10, 40.5886107, 1074.86122,
 2014-Sep-23 01:17, , ,304.2052, -9.2359, 1.9334119634E+10, 40.5878532, 1074.86135,
 2014-Sep-23 01:18, , ,304.4168, -9.3648, 1.9334122069E+10, 40.5870911, 1074.86149,
 2014-Sep-23 01:19, , ,304.6287, -9.4934, 1.9334124504E+10, 40.5863246, 1074.86162,
 2014-Sep-23 01:20, , ,304.8409, -9.6216, 1.9334126939E+10, 40.5855535, 1074.86176,
 2014-Sep-23 01:21, , ,305.0534, -9.7496, 1.9334129374E+10, 40.5847780, 1074.86190,
 2014-Sep-23 01:22, , ,305.2662, -9.8771, 1.9334131809E+10, 40.5839979, 1074.86203,
 2014-Sep-23 01:23, , ,305.4793,-10.0044, 1.9334134244E+10, 40.5832135, 1074.86217,
 2014-Sep-23 01:24, , ,305.6926,-10.1313, 1.9334136678E+10, 40.5824245, 1074.86230,
 2014-Sep-23 01:25, , ,305.9063,-10.2579, 1.9334139113E+10, 40.5816311, 1074.86244,
 2014-Sep-23 01:26, , ,306.1203,-10.3841, 1.9334141548E+10, 40.5808334, 1074.86257,
 2014-Sep-23 01:27, , ,306.3345,-10.5100, 1.9334143983E+10, 40.5800312, 1074.86271,
 2014-Sep-23 01:28, , ,306.5491,-10.6355, 1.9334146417E+10, 40.5792246, 1074.86284,
 2014-Sep-23 01:29, , ,306.7640,-10.7607, 1.9334148852E+10, 40.5784136, 1074.86298,
 2014-Sep-23 01:30, , ,306.9792,-10.8856, 1.9334151286E+10, 40.5775983, 1074.86311,
